[{"OBJECT_NAME":"STARLINK-30371","OBJECT_ID":"2023-131D","EPOCH":"2026-03-09T06:28:41.706624","MEAN_MOTION":15.02535192,"ECCENTRICITY":0.00015763,"INCLINATION":43.0017,"RA_OF_ASC_NODE":173.8442,"ARG_OF_PERICENTER":268.2057,"MEAN_ANOMALY":91.8605,"EPHEMERIS_TYPE":0,"CLASSIFICATION_TYPE":"U","NORAD_CAT_ID":57735,"ELEMENT_SET_NO":999,"REV_AT_EPOCH":13986,"BSTAR":-3.612813e-6,"MEAN_MOTION_DOT":-2.52e-6,"MEAN_MOTION_DDOT":0},{"OBJECT_NAME":"CZ-2D R\/B","OBJECT_ID":"2010-027B","EPOCH":"2026-03-09T19:01:31.304352","MEAN_MOTION":15.02332282,"ECCENTRICITY":0.00475082,"INCLINATION":97.9913,"RA_OF_ASC_NODE":95.0303,"ARG_OF_PERICENTER":252.3591,"MEAN_ANOMALY":107.2442,"EPHEMERIS_TYPE":0,"CLASSIFICATION_TYPE":"U","NORAD_CAT_ID":36597,"ELEMENT_SET_NO":999,"REV_AT_EPOCH":85595,"BSTAR":0.00022535675,"MEAN_MOTION_DOT":2.983e-5,"MEAN_MOTION_DDOT":0}]
